NORAD_CAT_ID,OBJECT_NAME,OBJECT_TYPE,EPOCH,MEAN_MOTION,ECCENTRICITY,INCLINATION,RA_OF_ASC_NODE,ARG_OF_PERICENTER,MEAN_ANOMALY,BSTAR,MEAN_MOTION_DOT,MEAN_MOTION_DDOT,TLE_LINE0,TLE_LINE1,TLE_LINE2,SEMIMAJOR_AXIS,PERIOD,APOGEE,PERIGEE,DECAYED
49172.0,STARLINK-3091,PAYLOAD,2022-04-25 14:00:01,14.96701396,0.0003239,69.9994,239.1363,277.2914,210.867,-0.00060421,-6.998e-05,0.0,0 STARLINK-3091,1 49172U 21082AU  22115.58334491 -.00006998  00000-0 -60421-3 0  9994,2 49172  69.9994 239.1363 0003239 277.2914 210.8670 14.96701396  3549,6955.234,96.212,579.352,574.846,0.0
49172.0,STARLINK-3091,PAYLOAD,2022-04-25 22:00:00,14.96723829,0.0003208999999999,69.9992,238.2979,279.881,203.7987,-0.0023849,-0.00027288,0.0,0 STARLINK-3091,1 49172U 21082AU  22115.91667824 -.00027288  00000-0 -23849-2 0  9997,2 49172  69.9992 238.2979 0003209 279.8810 203.7987 14.96723829 34710,6955.1640000000025,96.21,579.261,574.797,0.0
49172.0,STARLINK-3091,PAYLOAD,2022-04-26 14:00:01,14.96726625,0.0003283,69.9997,236.6213,278.3093,196.5326,-0.00049123,-5.711e-05,0.0,0 STARLINK-3091,1 49172U 21082AU  22116.58335648 -.00005711  00000-0 -49123-3 0  9998,2 49172  69.9997 236.6213 0003283 278.3093 196.5326 14.96726625 34811,6955.156,96.21,579.304,574.737,0.0
49172.0,STARLINK-3091,PAYLOAD,2022-04-26 22:00:00,14.96751775,0.0003295,69.9994,235.7828,279.9878,190.3463,-0.0059926,-0.00068082,0.0,0 STARLINK-3091,1 49172U 21082AU  22116.91667824 -.00068082  00000-0 -59926-2 0  9990,2 49172  69.9994 235.7828 0003295 279.9878 190.3463 14.96751775  3556,6955.078,96.208,579.234,574.651,0.0
49172.0,STARLINK-3091,PAYLOAD,2022-04-27 14:00:01,14.96722295,0.0003374,70.0,234.1061,278.7086,182.7972,0.00021837,2.409e-05,0.0,0 STARLINK-3091,1 49172U 21082AU  22117.58335648  .00002409  00000-0  21837-3 0  9990,2 49172  70.0000 234.1061 0003374 278.7086 182.7972 14.96722295  3583,6955.169,96.21,579.381,574.687,0.0
49172.0,STARLINK-3091,PAYLOAD,2022-04-27 22:00:00,14.96759694,0.0003287,69.9997,233.2676,280.4401,176.5578,-0.0067697,-0.00076819,0.0,0 STARLINK-3091,1 49172U 21082AU  22117.91667824 -.00076819  00000-0 -67697-2 0  9992,2 49172  69.9997 233.2676 0003287 280.4401 176.5578 14.96759694 35010,6955.053000000001,96.208,579.2040000000002,574.632,0.0
49172.0,STARLINK-3091,PAYLOAD,2022-04-28 06:00:00,14.96700884,0.0003234,70.0,232.4292,274.3426,178.2325,0.0057143,0.00065909,0.0,0 STARLINK-3091,1 49172U 21082AU  22118.25001157  .00065909  00000-0  57143-2 0  9992,2 49172  70.0000 232.4292 0003234 274.3426 178.2325 14.96700884 35065,6955.235,96.212,579.35,574.851,0.0
49172.0,STARLINK-3091,PAYLOAD,2022-04-28 14:00:01,14.96739107,0.0003276999999999,70.0004,231.5909,278.9281,169.2035,-0.00088536,-0.00010217,0.0,0 STARLINK-3091,1 49172U 21082AU  22118.58334491 -.00010217  00000-0 -88536-3 0  9993,2 49172  70.0004 231.5909 0003277 278.9281 169.2035 14.96739107  3580,6955.1169999999975,96.209,579.261,574.703,0.0
49172.0,STARLINK-3091,PAYLOAD,2022-04-28 22:00:01,14.96764159,0.0003171,70.0001,230.7523,280.0615,163.7055,-0.0083048,-0.00093998,0.0,0 STARLINK-3091,1 49172U 21082AU  22118.91668981 -.00093998  00000-0 -83048-2 0  9993,2 49172  70.0001 230.7523 0003171 280.0615 163.7055 14.96764159 35163,6955.0390000000025,96.208,579.11,574.6990000000002,0.0
49172.0,STARLINK-3091,PAYLOAD,2022-04-29 06:00:00,14.96687756,0.0003074,70.0004,229.914,274.1679,165.1037,0.0054611,0.00062936,0.0,0 STARLINK-3091,1 49172U 21082AU  22119.25001157  .00062936  00000-0  54611-2 0  9997,2 49172  70.0004 229.9140 0003074 274.1679 165.1037 14.96687756 35216,6955.276,96.212,579.279,575.003,0.0
49172.0,STARLINK-3091,PAYLOAD,2022-04-29 14:00:01,14.96728355,0.0003138,70.0005,229.0757,278.8442,155.9653,-0.0021834,-0.00025001,0.0,0 STARLINK-3091,1 49172U 21082AU  22119.58334491 -.00025001  00000-0 -21834-2 0  9998,2 49172  70.0005 229.0757 0003138 278.8442 155.9653 14.96728355  3556,6955.15,96.21,579.198,574.8330000000002,0.0
49172.0,STARLINK-3091,PAYLOAD,2022-04-29 22:00:00,14.96736103,0.0003151,70.0003,228.2372,279.9019,150.4563,-0.0074864999999999,-0.00084795,0.0,0 STARLINK-3091,1 49172U 21082AU  22119.91667824 -.00084795  00000-0 -74865-2 0  9991,2 49172  70.0003 228.2372 0003151 279.9019 150.4563 14.96736103 35314,6955.126,96.209,579.183,574.8,0.0
49172.0,STARLINK-3091,PAYLOAD,2022-04-30 14:00:01,14.96688259,0.0003255,70.0008,226.5607,278.6725,142.7324,0.0010599,0.00012052,0.0,0 STARLINK-3091,1 49172U 21082AU  22120.58334491  .00012052  00000-0  10599-2 0  9996,2 49172  70.0008 226.5607 0003255 278.6725 142.7324 14.96688259 35414,6955.274,96.212,579.403,574.876,0.0
49172.0,STARLINK-3091,PAYLOAD,2022-04-30 22:00:00,14.96731986,0.0003253999999999,70.0006,225.7222,279.0072,137.9862,-0.0034644,-0.00039538,0.0,0 STARLINK-3091,1 49172U 21082AU  22120.91667824 -.00039538  00000-0 -34644-2 0  9999,2 49172  70.0006 225.7222 0003254 279.0072 137.9862 14.96731986 35469,6955.139,96.21,579.2669999999998,574.741,0.0
49172.0,STARLINK-3091,PAYLOAD,2022-05-01 14:00:01,14.96689847,0.0003226,70.0008,224.0458,279.1372,128.9549,6.911100000000001e-05,6.99e-06,0.0,0 STARLINK-3091,1 49172U 21082AU  22121.58334491  .00000699  00000-0  69111-4 0  9997,2 49172  70.0008 224.0458 0003226 279.1372 128.9549 14.96689847 35568,6955.27,96.212,579.378,574.891,0.0
49172.0,STARLINK-3091,PAYLOAD,2022-05-01 22:00:01,14.96708144,0.0003226,70.0005,223.2074,278.9593,124.7114,-0.0060681999999999,-0.00068855,0.0,0 STARLINK-3091,1 49172U 21082AU  22121.91668981 -.00068855  00000-0 -60682-2 0  9990,2 49172  70.0005 223.2074 0003226 278.9593 124.7114 14.96708144  3550,6955.2130000000025,96.211,579.322,574.8340000000002,0.0
49172.0,STARLINK-3091,PAYLOAD,2022-05-02 14:00:01,14.96673552,0.0003302,70.0006,221.5311,279.6658,114.9573,0.0015753,0.00017966,0.0,0 STARLINK-3091,1 49172U 21082AU  22122.58334491  .00017966  00000-0  15753-2 0  9994,2 49172  70.0006 221.5311 0003302 279.6658 114.9573 14.96673552  3588,6955.32,96.213,579.482,574.888,0.0
49172.0,STARLINK-3091,PAYLOAD,2022-05-02 22:00:01,14.96705263,0.0003231,70.0002,220.6928,279.236,110.9521,-0.0028868,-0.0003297,0.0,0 STARLINK-3091,1 49172U 21082AU  22122.91668981 -.00032970  00000-0 -28868-2 0  9990,2 49172  70.0002 220.6928 0003231 279.2360 110.9521 14.96705263 35764,6955.222,96.211,579.3340000000002,574.84,0.0
49172.0,STARLINK-3091,PAYLOAD,2022-05-03 04:00:00,14.96657473,0.0003181,70.0002,220.0642,274.2998,22.4715,0.0095045,0.00110265,0.0,0 STARLINK-3091,1 49172U 21082AU  22123.16667824  .00110265  00000-0  95045-2 0  9996,2 49172  70.0002 220.0642 0003181 274.2998  22.4715 14.96657473 35791,6955.37,96.214,579.447,575.0219999999998,0.0
49172.0,STARLINK-3091,PAYLOAD,2022-05-03 14:00:01,14.96715999,0.0003212,70.0004,219.0162,279.882,101.3085,0.0016225,0.00018529,0.0,0 STARLINK-3091,1 49172U 21082AU  22123.58334491  .00018529  00000-0  16225-2 0  9996,2 49172  70.0004 219.0162 0003212 279.8820 101.3085 14.96715999 35861,6955.189,96.211,579.288,574.82,0.0
49172.0,STARLINK-3091,PAYLOAD,2022-05-03 22:00:00,14.96749226,0.0003205,69.9999,218.1778,278.6339,98.1093,-0.0039052,-0.00044545,0.0,0 STARLINK-3091,1 49172U 21082AU  22123.91667824 -.00044545  00000-0 -39052-2 0  9994,2 49172  69.9999 218.1778 0003205 278.6339  98.1093 14.96749226  3584,6955.0859999999975,96.209,579.18,574.722,0.0
49172.0,STARLINK-3091,PAYLOAD,2022-05-04 14:00:01,14.96745571,0.0003246,70.0001,216.5011,279.2364,88.6578,-0.0021584,-0.00024728,0.0,0 STARLINK-3091,1 49172U 21082AU  22124.58334491 -.00024728  00000-0 -21584-2 0  9991,2 49172  70.0001 216.5011 0003246 279.2364  88.6578 14.96745571  3595,6955.097,96.209,579.22,574.7040000000002,0.0
49172.0,STARLINK-3091,PAYLOAD,2022-05-04 20:00:01,14.96747377,0.0003223,69.9996,215.8723,279.2624,355.3735,-0.0040895,-0.00046627,0.0,0 STARLINK-3091,1 49172U 21082AU  22124.83335648 -.00046627  00000-0 -40895-2 0  9992,2 49172  69.9996 215.8723 0003223 279.2624 355.3735 14.96747377 36042,6955.090999999999,96.209,579.198,574.715,0.0
49172.0,STARLINK-3091,PAYLOAD,2022-05-04 22:00:01,14.96738857,0.0003188999999999,69.9996,215.6626,277.9645,85.5661,-0.0034983,-0.00039929,0.0,0 STARLINK-3091,1 49172U 21082AU  22124.91668981 -.00039929  00000-0 -34983-2 0  9998,2 49172  69.9996 215.6626 0003189 277.9645  85.5661 14.96738857  3600,6955.118,96.209,579.201,574.765,0.0
49172.0,STARLINK-3091,PAYLOAD,2022-05-05 06:00:00,14.96730098,0.0003198,69.9999,214.8244,272.988,86.0361,0.0019275,0.00022048,0.0,0 STARLINK-3091,1 49172U 21082AU  22125.25001157  .00022048  00000-0  19275-2 0  9991,2 49172  69.9999 214.8244 0003198 272.9880  86.0361 14.96730098 36109,6955.145,96.21,579.234,574.786,0.0
49172.0,STARLINK-3091,PAYLOAD,2022-05-05 14:00:01,14.96733591,0.0003216,69.9997,213.986,278.9712,75.6231,-0.0018656,-0.0002139,0.0,0 STARLINK-3091,1 49172U 21082AU  22125.58334491 -.00021390  00000-0 -18656-2 0  9990,2 49172  69.9997 213.9860 0003216 278.9712  75.6231 14.96733591  3545,6955.134,96.21,579.236,574.762,0.0
49172.0,STARLINK-3091,PAYLOAD,2022-05-05 22:00:00,14.96725163,0.0003148,69.9995,213.1476,277.7157,72.4392,-0.0031929,-0.00036456,0.0,0 STARLINK-3091,1 49172U 21082AU  22125.91667824 -.00036456  00000-0 -31929-2 0  9993,2 49172  69.9995 213.1476 0003148 277.7157  72.4392 14.96725163 36200,6955.16,96.21,579.215,574.836,0.0
49172.0,STARLINK-3091,PAYLOAD,2022-05-06 14:00:01,14.9670833,0.0003233,69.9997,211.471,279.1474,62.1037,0.0017369,0.00019842,0.0,0 STARLINK-3091,1 49172U 21082AU  22126.58334491  .00019842  00000-0  17369-2 0  9998,2 49172  69.9997 211.4710 0003233 279.1474  62.1037 14.96708330 36307,6955.212,96.211,579.326,574.8290000000002,0.0
49172.0,STARLINK-3091,PAYLOAD,2022-05-07 06:00:02,14.96712606,0.0003326,69.9998,209.7945,273.3875,59.0058,0.00027608,3.07e-05,0.0,0 STARLINK-3091,1 49172U 21082AU  22127.25002315  .00003070  00000-0  27608-3 0  9994,2 49172  69.9998 209.7945 0003326 273.3875  59.0058 14.96712606 36402,6955.199000000001,96.211,579.377,574.751,0.0
